{
    "links": {
        "self": "http://www.neowsapp.com/rest/v1/neo/3662288?api_key=iIulBulltgU6a56xZRHN4H3l9WmuAYTsLGpBGhQ2"
    },
    "id": "3662288",
    "neo_reference_id": "3662288",
    "name": "(2014 DG10)",
    "designation": "2014 DG10",
    "nasa_jpl_url": "http://ssd.jpl.nasa.gov/sbdb.cgi?sstr=3662288",
    "absolute_magnitude_h": 23.2,
    "estimated_diameter": {
        "kilometers": {
            "estimated_diameter_min": 0.0608912622,
            "estimated_diameter_max": 0.1361570015
        },
        "meters": {
            "estimated_diameter_min": 60.8912622106,
            "estimated_diameter_max": 136.1570015386
        },
        "miles": {
            "estimated_diameter_min": 0.0378360645,
            "estimated_diameter_max": 0.0846040122
        },
        "feet": {
            "estimated_diameter_min": 199.7744887109,
            "estimated_diameter_max": 446.7093369279
        }
    },
    "is_potentially_hazardous_asteroid": false,
    "close_approach_data": [
        {
            "close_approach_date": "2014-02-04",
            "close_approach_date_full": "2014-Feb-04 19:11",
            "epoch_date_close_approach": 1391541060000,
            "relative_velocity": {
                "kilometers_per_second": "14.8481154642",
                "kilometers_per_hour": "53453.2156710318",
                "miles_per_hour": "33213.7494818142"
            },
            "miss_distance": {
                "astronomical": "0.0631362691",
                "lunar": "24.5600086799",
                "kilometers": "9445051.377106817",
                "miles": "5868882.7820233946"
            },
            "orbiting_body": "Earth"
        }
    ],
    "orbital_data": {
        "orbit_id": "5",
        "orbit_determination_date": "2017-04-06 08:42:22",
        "first_observation_date": "2014-02-22",
        "last_observation_date": "2014-03-03",
        "data_arc_in_days": 9,
        "observations_used": 26,
        "orbit_uncertainty": "8",
        "minimum_orbit_intersection": ".05762",
        "jupiter_tisserand_invariant": "3.625",
        "epoch_osculation": "2456712.5",
        "eccentricity": ".5753499051789438",
        "semi_major_axis": "1.974685398804805",
        "inclination": "10.77849536155099",
        "ascending_node_longitude": "149.6781899877977",
        "orbital_period": "1013.550283038886",
        "perihelion_distance": ".8385503418442158",
        "perihelion_argument": "286.1289774625351",
        "aphelion_distance": "3.110820455765395",
        "perihelion_time": "2456652.098823232198",
        "mean_anomaly": "21.45371966274166",
        "mean_motion": ".3551871140725519",
        "equinox": "J2000",
        "orbit_class": {
            "orbit_class_type": "APO",
            "orbit_class_description": "Near-Earth asteroid orbits which cross the Earth’s orbit similar to that of 1862 Apollo",
            "orbit_class_range": "a (semi-major axis) > 1.0 AU; q (perihelion) < 1.017 AU"
        }
    },
    "is_sentry_object": false
}